LUR-1                   
1 60506U 24149AQ  26068.79566301  .00009121  00000+0  32985-3 0  9998
2 60506  97.3790 148.4255 0002777 309.1571  50.9421 15.28658648 86785
STARLINK-35706          
1 67051U 25294X   26068.78436663  .00022879  00000+0  83859-3 0  9999
2 67051  43.0009  37.5365 0000941 279.7056  80.3690 15.27570629 14810
